FLOCK 4G-21             
1 62651U 25009AU  26068.19487675  .00013648  00000+0  49619-3 0  9998
2 62651  97.4032 151.1274 0000465 329.5782  30.5431 15.28381075 63677
STARLINK-33729          
1 63647U 25083P   26068.17050772  .00038185  00000+0  13894-2 0  9996
2 63647  43.0024   8.4706 0000993 267.3311  92.7427 15.27593460 49983
